NORAD_CAT_ID,OBJECT_NAME,OBJECT_TYPE,EPOCH,MEAN_MOTION,ECCENTRICITY,INCLINATION,RA_OF_ASC_NODE,ARG_OF_PERICENTER,MEAN_ANOMALY,BSTAR,MEAN_MOTION_DOT,MEAN_MOTION_DDOT,TLE_LINE0,TLE_LINE1,TLE_LINE2,SEMIMAJOR_AXIS,PERIOD,APOGEE,PERIGEE,DECAYED
50831.0,STARLINK-3299,PAYLOAD,2023-12-03 03:00:04,15.08824927,0.0001904,53.2175,284.27,83.5512,276.5697,-0.00025196,-4.294e-05,0.0,0 STARLINK-3299,1 50831U 22001AE  23337.12505243 -.00004294  00000-0 -25196-3 0  9999,2 50831  53.2175 284.2700 0001904  83.5512 276.5697 15.08824927106749,6917.926,95.439,541.109,538.474,0.0
50831.0,STARLINK-3299,PAYLOAD,2023-12-03 06:10:50,15.08826096,0.0001886,53.2172,283.6742,91.4575,268.6633,-0.00022345,-3.841e-05,0.0,0 STARLINK-3299,1 50831U 22001AE  23337.25753241 -.00003841  00000-0 -22345-3 0  9996,2 50831  53.2172 283.6742 0001886  91.4575 268.6633 15.08826096105493,6917.923,95.438,541.093,538.483,0.0
50831.0,STARLINK-3299,PAYLOAD,2023-12-04 02:50:50,15.08849344,0.0001911,53.2164,279.8097,111.8552,248.2644,-0.00025552,-4.354e-05,0.0,0 STARLINK-3299,1 50831U 22001AE  23338.11864496 -.00004354  00000-0 -25552-3 0  9990,2 50831  53.2164 279.8097 0001911 111.8552 248.2644 15.08849344106897,6917.852,95.437,541.039,538.395,0.0
50831.0,STARLINK-3299,PAYLOAD,2023-12-05 01:06:15,15.08846615,0.0001878,53.2162,275.647,116.3117,243.8068,0.000459,7.026e-05,0.0,0 STARLINK-3299,1 50831U 22001AE  23339.04600842  .00007026  00000-0  45900-3 0  9992,2 50831  53.2162 275.6470 0001878 116.3117 243.8068 15.08846615105767,6917.86,95.437,541.024,538.426,0.0
50831.0,STARLINK-3299,PAYLOAD,2023-12-05 20:10:52,15.08847712,0.0001898,53.2169,272.0759,107.547,252.573,9.7734e-05,1.268e-05,0.0,0 STARLINK-3299,1 50831U 22001AE  23339.84088673  .00001268  00000-0  97734-4 0  9997,2 50831  53.2169 272.0759 0001898 107.5470 252.5730 15.08847712107158,6917.857,95.437,541.035,538.409,0.0
50831.0,STARLINK-3299,PAYLOAD,2023-12-06 00:57:02,15.08832315,0.000161,53.2161,271.1911,103.4531,256.664,0.00031652,4.752e-05,0.0,0 STARLINK-3299,1 50831U 22001AE  23340.03961400  .00004752  00000-0  31652-3 0  9995,2 50831  53.2161 271.1911 0001610 103.4531 256.6640 15.08832315107186,6917.904,95.438,540.883,538.655,0.0
50831.0,STARLINK-3299,PAYLOAD,2023-12-06 05:43:11,15.08843074,0.0001857,53.2175,270.2932,115.9375,244.1809,5.396e-05,5.71e-06,0.0,0 STARLINK-3299,1 50831U 22001AE  23340.23832864  .00000571  00000-0  53960-4 0  9990,2 50831  53.2175 270.2932 0001857 115.9375 244.1809 15.08843074107218,6917.871,95.437,541.021,538.451,0.0
50831.0,STARLINK-3299,PAYLOAD,2023-12-07 02:23:13,15.08769368,0.0002309,53.2174,266.4285,112.8655,247.2581,0.001433,0.00022548,0.0,0 STARLINK-3299,1 50831U 22001AE  23341.09945888  .00022548  00000-0  14330-2 0  9990,2 50831  53.2174 266.4285 0002309 112.8655 247.2581 15.08769368107343,6918.096,95.442,541.559,538.364,0.0
50831.0,STARLINK-3299,PAYLOAD,2023-12-07 05:33:56,15.0886576,0.0001834,53.2173,265.8327,104.756,255.3635,2.4051e-05,9.5e-07,0.0,0 STARLINK-3299,1 50831U 22001AE  23341.23190769  .00000095  00000-0  24051-4 0  9992,2 50831  53.2173 265.8327 0001834 104.7560 255.3635 15.08865760107364,6917.802,95.436,540.935,538.398,0.0
50831.0,STARLINK-3299,PAYLOAD,2023-12-07 19:52:27,15.08828215,0.000168,53.2176,263.1581,91.5954,268.5231,-2.3655e-05,-6.64e-06,0.0,0 STARLINK-3299,1 50831U 22001AE  23341.82809476 -.00000664  00000-0 -23655-4 0  9992,2 50831  53.2176 263.1581 0001680  91.5954 268.5231 15.08828215107451,6917.916,95.438,540.944,538.619,0.0
50831.0,STARLINK-3299,PAYLOAD,2023-12-08 02:14:00,15.0882482,0.0001745,53.2177,261.9692,98.4657,261.6533,-4.6333e-05,-1.025e-05,0.0,0 STARLINK-3299,1 50831U 22001AE  23342.09305882 -.00001025  00000-0 -46333-4 0  9994,2 50831  53.2177 261.9692 0001745  98.4657 261.6533 15.08824820106220,6917.927,95.439,540.999,538.585,0.0
50831.0,STARLINK-3299,PAYLOAD,2023-12-09 03:40:09,15.08849053,0.0001696,53.2158,257.2098,94.5834,265.5352,-3.1311e-05,-7.87e-06,0.0,0 STARLINK-3299,1 50831U 22001AE  23343.15288514 -.00000787  00000-0 -31311-4 0  9998,2 50831  53.2158 257.2098 0001696  94.5834 265.5352 15.08849053107651,6917.853,95.437,540.891,538.544,0.0
50831.0,STARLINK-3299,PAYLOAD,2023-12-10 22:35:34,15.08843357,0.0001735,53.2168,249.1831,91.4656,268.6534,5.6021e-05,6.04e-06,0.0,0 STARLINK-3299,1 50831U 22001AE  23344.94136719  .00000604  00000-0  56021-4 0  9996,2 50831  53.2168 249.1831 0001735  91.4656 268.6534 15.08843357106655,6917.87,95.437,540.935,538.535,0.0
50831.0,STARLINK-3299,PAYLOAD,2023-12-11 00:10:57,15.08843794,0.0001707,53.2168,248.8849,91.9473,268.1715,6.4513e-05,7.39e-06,0.0,0 STARLINK-3299,1 50831U 22001AE  23345.00760686  .00000739  00000-0  64513-4 0  9994,2 50831  53.2168 248.8849 0001707  91.9473 268.1715 15.08843794107934,6917.869,95.437,540.915,538.553,0.0
50831.0,STARLINK-3299,PAYLOAD,2023-12-11 22:26:21,15.08840464,0.0001728,53.2163,244.7225,88.7586,271.3604,3.9827e-05,3.46e-06,0.0,0 STARLINK-3299,1 50831U 22001AE  23345.93497097  .00000346  00000-0  39827-4 0  9993,2 50831  53.2163 244.7225 0001728  88.7586 271.3604 15.08840464106803,6917.879,95.438,540.939,538.549,0.0
50831.0,STARLINK-3299,PAYLOAD,2023-12-12 00:01:44,15.08838042,0.000179,53.2164,244.4304,94.425,265.6947,9.8423e-05,1.279e-05,0.0,0 STARLINK-3299,1 50831U 22001AE  23346.00121200  .00001279  00000-0  98423-4 0  9995,2 50831  53.2164 244.4304 0001790  94.4250 265.6947 15.08838042108087,6917.886,95.438,540.99,538.513,0.0
50831.0,STARLINK-3299,PAYLOAD,2023-12-12 22:17:08,15.08842566,0.0001699,53.2165,240.2622,91.1621,268.9566,0.00010691,1.414e-05,0.0,0 STARLINK-3299,1 50831U 22001AE  23346.92857043  .00001414  00000-0  10691-3 0  9998,2 50831  53.2165 240.2622 0001699  91.1621 268.9566 15.08842566106952,6917.873,95.437,540.913,538.562,0.0
50831.0,STARLINK-3299,PAYLOAD,2023-12-12 23:52:31,15.08844886,0.0001816,53.2171,239.97,101.0579,259.0618,0.00012568,1.713e-05,0.0,0 STARLINK-3299,1 50831U 22001AE  23346.99480861  .00001713  00000-0  12568-3 0  9992,2 50831  53.2171 239.9700 0001816 101.0579 259.0618 15.08844886106962,6917.865,95.437,540.987,538.474,0.0
50831.0,STARLINK-3299,PAYLOAD,2023-12-13 22:07:55,15.0884217,0.0001692,53.2165,235.8018,86.8643,273.2543,8.9955e-05,1.144e-05,0.0,0 STARLINK-3299,1 50831U 22001AE  23347.92216988  .00001144  00000-0  89955-4 0  9996,2 50831  53.2165 235.8018 0001692  86.8643 273.2543 15.08842170107102,6917.874,95.437,540.909,538.568,0.0
50831.0,STARLINK-3299,PAYLOAD,2023-12-13 23:43:18,15.08843767,0.0001716,53.2166,235.5038,91.2634,268.8555,0.00010081,1.317e-05,0.0,0 STARLINK-3299,1 50831U 22001AE  23347.98840821  .00001317  00000-0  10081-3 0  9996,2 50831  53.2166 235.5038 0001716  91.2634 268.8555 15.08843767108386,6917.869,95.437,540.921,538.547,0.0
50831.0,STARLINK-3299,PAYLOAD,2023-12-14 20:23:19,15.0883716,0.0001729,53.2163,231.6377,97.0236,263.0953,-2.7326e-06,-3.32e-06,0.0,0 STARLINK-3299,1 50831U 22001AE  23348.84953541 -.00000332  00000-0 -27326-5 0  9996,2 50831  53.2163 231.6377 0001729  97.0236 263.0953 15.08837160108516,6917.889,95.438,540.95,538.558,0.0
50831.0,STARLINK-3299,PAYLOAD,2023-12-14 21:58:42,15.08837278,0.0001722,53.2163,231.3404,96.7998,263.319,-6.9757e-06,-3.99e-06,0.0,0 STARLINK-3299,1 50831U 22001AE  23348.91577503 -.00000399  00000-0 -69757-5 0  9991,2 50831  53.2163 231.3404 0001722  96.7998 263.3190 15.08837278107254,6917.889,95.438,540.945,538.562,0.0
50831.0,STARLINK-3299,PAYLOAD,2023-12-15 20:14:07,15.08828542,0.0001661,53.216,227.1786,93.9774,266.1408,-2.5715e-05,-6.97e-06,0.0,0 STARLINK-3299,1 50831U 22001AE  23349.84314561 -.00000697  00000-0 -25715-4 0  9993,2 50831  53.2160 227.1786 0001661  93.9774 266.1408 15.08828542108663,6917.915,95.438,540.929,538.631,0.0
50831.0,STARLINK-3299,PAYLOAD,2023-12-15 21:49:30,15.08830925,0.0001649,53.2162,226.8806,96.5024,263.6156,-6.518e-05,-1.325e-05,0.0,0 STARLINK-3299,1 50831U 22001AE  23349.90938560 -.00001325  00000-0 -65180-4 0  9990,2 50831  53.2162 226.8806 0001649  96.5024 263.6156 15.08830925107408,6917.908,95.438,540.914,538.632,0.0
50831.0,STARLINK-3299,PAYLOAD,2023-12-15 23:24:54,15.0883197,0.0001594,53.2161,226.586,85.4403,274.6771,-3.4276e-05,-8.33e-06,0.0,0 STARLINK-3299,1 50831U 22001AE  23349.97562508 -.00000833  00000-0 -34276-4 0  9997,2 50831  53.2161 226.5860 0001594  85.4403 274.6771 15.08831970107418,6917.905,95.438,540.873,538.667,0.0
50831.0,STARLINK-3299,PAYLOAD,2023-12-16 20:04:54,15.08842021,0.0001554,53.2156,222.7163,104.4144,255.7021,0.00010423,1.371e-05,0.0,0 STARLINK-3299,1 50831U 22001AE  23350.83673691  .00001371  00000-0  10423-3 0  9993,2 50831  53.2156 222.7163 0001554 104.4144 255.7021 15.08842021108818,6917.874,95.437,540.814,538.664,0.0
50831.0,STARLINK-3299,PAYLOAD,2023-12-16 21:40:17,15.08842016,0.0001589,53.2163,222.4211,88.3938,271.7236,0.00013529,1.866e-05,0.0,0 STARLINK-3299,1 50831U 22001AE  23350.90297702  .00001866  00000-0  13529-3 0  9995,2 50831  53.2163 222.4211 0001589  88.3938 271.7236 15.08842016107556,6917.874,95.437,540.838,538.64,0.0
50831.0,STARLINK-3299,PAYLOAD,2023-12-16 23:15:40,15.08844612,0.0001601,53.2162,222.1226,89.8068,270.3107,0.00015971,2.255e-05,0.0,0 STARLINK-3299,1 50831U 22001AE  23350.96921508  .00002255  00000-0  15971-3 0  9995,2 50831  53.2162 222.1226 0001601  89.8068 270.3107 15.08844612107560,6917.866,95.437,540.839,538.624,0.0
50831.0,STARLINK-3299,PAYLOAD,2023-12-17 21:31:04,15.08844773,0.0001967,53.2172,217.9583,61.3421,298.7769,0.00015733,2.217e-05,0.0,0 STARLINK-3299,1 50831U 22001AE  23351.89657961  .00002217  00000-0  15733-3 0  9991,2 50831  53.2172 217.9583 0001967  61.3421 298.7769 15.08844773107704,6917.866,95.437,541.092,538.37,0.0
50831.0,STARLINK-3299,PAYLOAD,2023-12-18 19:46:29,15.0883669,0.0001689,53.2168,213.7961,93.0179,267.1006,-3.1429e-05,-7.88e-06,0.0,0 STARLINK-3299,1 50831U 22001AE  23352.82394945 -.00000788  00000-0 -31429-4 0  9999,2 50831  53.2168 213.7961 0001689  93.0179 267.1006 15.08836690109116,6917.891,95.438,540.924,538.587,0.0
